NORAD_CAT_ID,OBJECT_NAME,OBJECT_TYPE,EPOCH,MEAN_MOTION,ECCENTRICITY,INCLINATION,RA_OF_ASC_NODE,ARG_OF_PERICENTER,MEAN_ANOMALY,BSTAR,MEAN_MOTION_DOT,MEAN_MOTION_DDOT,TLE_LINE0,TLE_LINE1,TLE_LINE2,SEMIMAJOR_AXIS,PERIOD,APOGEE,PERIGEE,DECAYED
52860.0,STARLINK-4191,PAYLOAD,2023-03-17 19:46:42,15.0887805,0.0001421,53.2138,227.7397,61.487,298.6265,0.001806,0.00028602,0.0,0 STARLINK-4191,1 52860U 22062AG  23076.82410405  .00028602  00000-0  18060-2 0  9990,2 52860  53.2138 227.7397 0001421  61.4870 298.6265 15.08878050 42181,6917.764,95.435,540.612,538.646,0.0
52860.0,STARLINK-4191,PAYLOAD,2023-03-18 13:15:56,15.08863995,0.0001791,53.2134,224.4669,69.007,291.1113,0.00032803,4.94e-05,0.0,0 STARLINK-4191,1 52860U 22062AG  23077.55273702  .00004940  00000-0  32803-3 0  9999,2 52860  53.2134 224.4669 0001791  69.0070 291.1113 15.08863995 42293,6917.807,95.436,540.911,538.433,0.0
52860.0,STARLINK-4191,PAYLOAD,2023-03-18 16:26:42,15.08862618,0.0001338,53.2144,223.8733,63.6305,296.4825,0.00034996,5.289e-05,0.0,0 STARLINK-4191,1 52860U 22062AG  23077.68521510  .00005289  00000-0  34996-3 0  9998,2 52860  53.2144 223.8733 0001338  63.6305 296.4825 15.08862618 41824,6917.811,95.436,540.602,538.751,0.0
52860.0,STARLINK-4191,PAYLOAD,2023-03-19 13:06:42,15.0885855,0.0001346,53.2138,220.0061,85.4858,274.6288,0.0001927,2.782e-05,0.0,0 STARLINK-4191,1 52860U 22062AG  23078.54632849  .00002782  00000-0  19270-3 0  9995,2 52860  53.2138 220.0061 0001346  85.4858 274.6288 15.08858550 41959,6917.824,95.436,540.62,538.758,0.0
52860.0,STARLINK-4191,PAYLOAD,2023-03-19 14:42:05,15.08857903,0.0001311,53.214,219.7086,87.9817,272.1325,0.00032052,4.819e-05,0.0,0 STARLINK-4191,1 52860U 22062AG  23078.61256833  .00004819  00000-0  32052-3 0  9994,2 52860  53.2140 219.7086 0001311  87.9817 272.1325 15.08857903 42450,6917.826,95.436,540.598,538.784,0.0
52860.0,STARLINK-4191,PAYLOAD,2023-03-19 19:28:15,15.08863923,0.0001245,53.2144,218.8171,77.1871,282.9261,0.00055063,8.492e-05,0.0,0 STARLINK-4191,1 52860U 22062AG  23078.81128560  .00008492  00000-0  55063-3 0  9999,2 52860  53.2144 218.8171 0001245  77.1871 282.9261 15.08863923 41991,6917.807,95.436,540.534,538.811,0.0
52860.0,STARLINK-4191,PAYLOAD,2023-03-20 12:57:30,15.08833241,0.000118,53.2151,215.549,72.6821,287.43,-0.00013518,-2.438e-05,0.0,0 STARLINK-4191,1 52860U 22062AG  23079.53993170 -.00002438  00000-0 -13518-3 0  9991,2 52860  53.2151 215.5490 0001180  72.6821 287.4300 15.08833241 42108,6917.901,95.438,540.582,538.95,0.0
52860.0,STARLINK-4191,PAYLOAD,2023-03-20 16:08:16,15.08844779,0.0001107,53.2148,214.9536,92.7496,267.3623,0.00061322,9.486e-05,0.0,0 STARLINK-4191,1 52860U 22062AG  23079.67241005  .00009486  00000-0  61322-3 0  9993,2 52860  53.2148 214.9536 0001107  92.7496 267.3623 15.08844779 42617,6917.866,95.437,540.497,538.965,0.0
52860.0,STARLINK-4191,PAYLOAD,2023-03-21 08:02:07,15.08840592,0.0001188,53.2142,211.9796,105.4539,254.6584,0.0001308,1.794e-05,0.0,0 STARLINK-4191,1 52860U 22062AG  23080.33481072  .00001794  00000-0  13080-3 0  9990,2 52860  53.2142 211.9796 0001188 105.4539 254.6584 15.08840592 42710,6917.879,95.438,540.565,538.922,0.0
52860.0,STARLINK-4191,PAYLOAD,2023-03-21 12:48:17,15.08840333,0.0001181,53.2145,211.0875,103.3223,256.7901,6.5762e-05,7.59e-06,0.0,0 STARLINK-4191,1 52860U 22062AG  23080.53353093  .00000759  00000-0  65762-4 0  9998,2 52860  53.2145 211.0875 0001181 103.3223 256.7901 15.08840333 42250,6917.879,95.438,540.561,538.927,0.0
52860.0,STARLINK-4191,PAYLOAD,2023-03-22 12:39:04,15.08831653,9.75e-05,53.2168,206.6258,97.1935,262.9168,0.00032808,4.936e-05,0.0,0 STARLINK-4191,1 52860U 22062AG  23081.52713816  .00004936  00000-0  32808-3 0  9996,2 52860  53.2168 206.6258 0000975  97.1935 262.9168 15.08831653 42899,6917.906,95.438,540.445,539.096,0.0
52860.0,STARLINK-4191,PAYLOAD,2023-03-22 17:25:13,15.0884345,0.0001088,53.2162,205.7327,98.0998,262.0118,0.00013723,1.897e-05,0.0,0 STARLINK-4191,1 52860U 22062AG  23081.72585246  .00001897  00000-0  13723-3 0  9990,2 52860  53.2162 205.7327 0001088  98.0998 262.0118 15.08843450 42923,6917.87,95.437,540.488,538.982,0.0
52860.0,STARLINK-4191,PAYLOAD,2023-03-23 01:22:09,15.08835705,0.0001263,53.2152,204.2478,77.9536,282.1597,6.5712e-05,7.58e-06,0.0,0 STARLINK-4191,1 52860U 22062AG  23082.05705796  .00000758  00000-0  65712-4 0  9992,2 52860  53.2152 204.2478 0001263  77.9536 282.1597 15.08835705 42975,6917.894,95.438,540.632,538.885,0.0
52860.0,STARLINK-4191,PAYLOAD,2023-03-23 14:05:14,15.08849699,0.0001625,53.2161,201.8694,48.0656,312.0475,0.00035977,5.444e-05,0.0,0 STARLINK-4191,1 52860U 22062AG  23082.58697565  .00005444  00000-0  35977-3 0  9990,2 52860  53.2161 201.8694 0001625  48.0656 312.0475 15.08849699 42562,6917.851,95.437,540.84,538.592,0.0
52860.0,STARLINK-4191,PAYLOAD,2023-03-23 15:40:37,15.08855388,0.0001257,53.216,201.5706,69.9745,290.1383,0.0003042,4.559e-05,0.0,0 STARLINK-4191,1 52860U 22062AG  23082.65320979  .00004559  00000-0  30420-3 0  9994,2 52860  53.2160 201.5706 0001257  69.9745 290.1383 15.08855388 43066,6917.833,95.437,540.568,538.829,0.0
52860.0,STARLINK-4191,PAYLOAD,2023-03-24 01:12:56,15.08845705,0.0001082,53.2181,199.7879,75.3893,284.7219,0.00022143,3.239e-05,0.0,0 STARLINK-4191,1 52860U 22062AG  23083.05065452  .00003239  00000-0  22143-3 0  9998,2 52860  53.2181 199.7879 0001082  75.3893 284.7219 15.08845705 43125,6917.863,95.437,540.476,538.979,0.0
52860.0,STARLINK-4191,PAYLOAD,2023-03-24 13:56:00,15.08863883,0.0001125,53.2163,197.4061,94.9177,265.1944,0.0005308,8.175e-05,0.0,0 STARLINK-4191,1 52860U 22062AG  23083.58056609  .00008175  00000-0  53080-3 0  9998,2 52860  53.2163 197.4061 0001125  94.9177 265.1944 15.08863883 43207,6917.807,95.436,540.451,538.894,0.0
52860.0,STARLINK-4191,PAYLOAD,2023-03-24 18:42:09,15.08871287,0.0001172,53.2155,196.5165,82.8702,277.2423,0.0006415,9.945e-05,0.0,0 STARLINK-4191,1 52860U 22062AG  23083.77928111  .00009945  00000-0  64150-3 0  9991,2 52860  53.2155 196.5165 0001172  82.8702 277.2423 15.08871287 42746,6917.785,95.436,540.461,538.839,0.0
52860.0,STARLINK-4191,PAYLOAD,2023-03-25 01:03:44,15.08815059,0.0001399,53.2141,195.3288,79.0617,281.0532,-0.00046308,-7.645e-05,0.0,0 STARLINK-4191,1 52860U 22062AG  23084.04426432 -.00007645  00000-0 -46308-3 0  9993,2 52860  53.2141 195.3288 0001399  79.0617 281.0532 15.08815059 43276,6917.957,95.439,540.789,538.854,0.0
52860.0,STARLINK-4191,PAYLOAD,2023-03-25 12:11:27,15.08797713,0.0001175,53.214,193.2482,82.4197,277.6928,-0.00060331,-9.865e-05,0.0,0 STARLINK-4191,1 52860U 22062AG  23084.50795992 -.00009865  00000-0 -60331-3 0  9992,2 52860  53.2140 193.2482 0001175  82.4197 277.6928 15.08797713 43345,6918.01,95.44,540.688,539.062,0.0
52860.0,STARLINK-4191,PAYLOAD,2023-03-25 13:46:50,15.08801604,0.0001293,53.2137,192.9489,101.4555,258.6582,-0.0005741,-9.403e-05,0.0,0 STARLINK-4191,1 52860U 22062AG  23084.57419914 -.00009403  00000-0 -57410-3 0  9998,2 52860  53.2137 192.9489 0001293 101.4555 258.6582 15.08801604 42861,6917.998,95.44,540.757,538.968,0.0
52860.0,STARLINK-4191,PAYLOAD,2023-03-26 12:02:14,15.08837027,0.0001421,53.2151,188.7874,66.2007,293.9134,0.00036079,5.458e-05,0.0,0 STARLINK-4191,1 52860U 22062AG  23085.50155755  .00005458  00000-0  36079-3 0  9994,2 52860  53.2151 188.7874 0001421  66.2007 293.9134 15.08837027 43494,6917.889,95.438,540.738,538.771,0.0
52860.0,STARLINK-4191,PAYLOAD,2023-03-26 13:37:36,15.08860148,0.000128,53.2165,188.4835,110.1823,249.9306,0.0006939,0.00010779,0.0,0 STARLINK-4191,1 52860U 22062AG  23085.56778878  .00010779  00000-0  69390-3 0  9991,2 52860  53.2165 188.4835 0001280 110.1823 249.9306 15.08860148 43505,6917.819,95.436,540.569,538.798,0.0
52860.0,STARLINK-4191,PAYLOAD,2023-03-27 13:28:24,15.08849995,0.0001218,53.2152,184.024,123.1469,236.964,0.00056857,8.775e-05,0.0,0 STARLINK-4191,1 52860U 22062AG  23086.56138980  .00008775  00000-0  56857-3 0  9993,2 52860  53.2152 184.0240 0001218 123.1469 236.9640 15.08849995 43654,6917.85,95.437,540.557,538.872,0.0
52860.0,STARLINK-4191,PAYLOAD,2023-03-28 11:43:46,15.08854118,0.0001149,53.2157,179.862,108.0003,252.1115,-0.00011092,-2.053e-05,0.0,0 STARLINK-4191,1 52860U 22062AG  23087.48873833 -.00002053  00000-0 -11092-3 0  9995,2 52860  53.2157 179.8620 0001149 108.0003 252.1115 15.08854118 43304,6917.837,95.437,540.497,538.907,0.0
52860.0,STARLINK-4191,PAYLOAD,2023-03-28 14:54:33,15.08856228,0.0001058,53.2158,179.2666,93.0306,267.0807,-6.3622e-05,-1.301e-05,0.0,0 STARLINK-4191,1 52860U 22062AG  23087.62121657 -.00001301  00000-0 -63622-4 0  9993,2 52860  53.2158 179.2666 0001058  93.0306 267.0807 15.08856228 43810,6917.831,95.437,540.428,538.964,0.0
52860.0,STARLINK-4191,PAYLOAD,2023-03-28 22:51:28,15.08847644,9.96e-05,53.2161,177.7805,86.9523,273.1583,-0.00013825,-2.488e-05,0.0,0 STARLINK-4191,1 52860U 22062AG  23087.95241834 -.00002488  00000-0 -13825-3 0  9995,2 52860  53.2161 177.7805 0000996  86.9523 273.1583 15.08847644 43860,6917.857,95.437,540.411,539.033,0.0
52860.0,STARLINK-4191,PAYLOAD,2023-03-29 13:09:56,15.08851703,9.28e-05,53.2148,175.1051,91.5071,268.6027,6.6544e-05,7.72e-06,0.0,0 STARLINK-4191,1 52860U 22062AG  23088.54857538  .00000772  00000-0  66544-4 0  9994,2 52860  53.2148 175.1051 0000928  91.5071 268.6027 15.08851703 43464,6917.845,95.437,540.352,539.068,0.0
52860.0,STARLINK-4191,PAYLOAD,2023-03-29 17:56:05,15.0885762,0.0001073,53.2154,174.2097,88.0225,272.089,0.00016845,2.395e-05,0.0,0 STARLINK-4191,1 52860U 22062AG  23088.74729135  .00002395  00000-0  16845-3 0  9998,2 52860  53.2154 174.2097 0001073  88.0225 272.0890 15.08857620 43983,6917.827,95.436,540.434,538.949,0.0
52860.0,STARLINK-4191,PAYLOAD,2023-03-30 05:03:48,15.08842214,0.0001087,53.2158,172.137,78.2736,281.8378,3.1404e-06,-2.38e-06,0.0,0 STARLINK-4191,1 52860U 22062AG  23089.21097987 -.00000238  00000-0  31404-5 0  9999,2 52860  53.2158 172.1370 0001087  78.2736 281.8378 15.08842214 44052,6917.874,95.437,540.491,538.987,0.0
